ONEWEB-0168             
1 48068U 21025AC  25253.34155221  .00000285  00000+0  74624-3 0  9996
2 48068  87.9033  15.7976 0001769 104.9653 255.1672 13.13470590216824
ONEWEB-0173             
1 48069U 21025AD  25253.33309142  .00000395  00000+0  10480-2 0  9990
2 48069  87.9032  15.8073 0001616 114.0391 246.0907 13.13470734217062
ONEWEB-0171             
1 48070U 21025AE  25253.29415630 -.00000234  00000+0 -67512-3 0  9990
2 48070  87.9022  15.8513 0001633 100.1170 260.0144 13.13470936216873
ONEWEB-0172             
1 48071U 21025AF  25253.35001456  .00000098  00000+0  23339-3 0  9990
2 48071  87.9033  15.8082 0001613 103.4913 256.6396 13.13469687217777
ONEWEB-0174             
1 48072U 21025AG  25253.33139525  .00000388  00000+0  10285-2 0  9995
2 48072  87.9028  15.8241 0001852 101.4638 258.6699 13.13472419217096
ONEWEB-0175             
1 48073U 21025AH  25253.05715757 -.00000249  00000+0 -71658-3 0  9992
2 48073  87.9029  15.8430 0001379  98.4563 261.6722 13.13471121216712
ONEWEB-0177             
1 48074U 21025AJ  25253.29753245 -.00000210  00000+0 -60884-3 0  9990
2 48074  87.9034  15.8122 0001850 105.1579 254.9755 13.13471093216937
ONEWEB-0178             
1 48075U 21025AK  25253.31629066  .00000121  00000+0  29763-3 0  9997
2 48075  87.9032  15.8547 0001532 106.2789 253.8509 13.13471153216986
ONEWEB-0108             
1 48076U 21025AL  25253.35171310  .00000075  00000+0  17152-3 0  9993
2 48076  87.9029  15.7938 0001882  93.6335 266.5009 13.13470005216914
ONEWEB-0169             
1 48077U 21025AM  25253.30769205 -.00000042  00000+0 -14855-3 0  9998
2 48077  87.9031  15.8256 0001903  94.0370 266.0977 13.13471217215565
ONEWEB-0176             
1 48210U 21031A   25253.21778115 -.00000130  00000+0 -38420-3 0  9996
2 48210  87.9084 345.4401 0001723 102.6784 257.4538 13.14503969211532
ONEWEB-0184             
1 48211U 21031B   25253.26693647  .00000058  00000+0  12144-3 0  9990
2 48211  87.9094 345.4018 0000991 115.7718 244.3514 13.14502896211511
ONEWEB-0179             
1 48212U 21031C   25253.23759374  .00000238  00000+0  60869-3 0  9995
2 48212  87.9085 345.4241 0001904 102.4492 257.6851 13.14502840211551
ONEWEB-0180             
1 48213U 21031D   25253.27011028  .00000030  00000+0  46199-4 0  9998
2 48213  87.9096 345.4068 0001791 110.0864 250.0459 13.14504085211445
ONEWEB-0218             
1 48214U 21031E   25252.75948526 -.00000118  00000+0 -35177-3 0  9995
2 48214  87.9094 345.5090 0001148 128.3903 231.7330 13.14503733211535
ONEWEB-0209             
1 48215U 21031F   25253.20510356 -.00000104  00000+0 -31424-3 0  9999
2 48215  87.9088 345.4637 0001956 105.7172 254.4174 13.14503988211595
