[{"OBJECT_NAME":"ONEWEB-0168","OBJECT_ID":"2021-025AC","EPOCH":"2025-09-10T08:11:50.110944","MEAN_MOTION":13.1347059,"ECCENTRICITY":0.0001769,"INCLINATION":87.9033,"RA_OF_ASC_NODE":15.7976,"ARG_OF_PERICENTER":104.9653,"MEAN_ANOMALY":255.1672,"EPHEMERIS_TYPE":0,"CLASSIFICATION_TYPE":"U","NORAD_CAT_ID":48068,"ELEMENT_SET_NO":999,"REV_AT_EPOCH":21682,"BSTAR":0.00074624495,"MEAN_MOTION_DOT":2.85e-6,"MEAN_MOTION_DDOT":0},{"OBJECT_NAME":"ONEWEB-0173","OBJECT_ID":"2021-025AD","EPOCH":"2025-09-10T07:59:39.098688","MEAN_MOTION":13.13470734,"ECCENTRICITY":0.00016162,"INCLINATION":87.9032,"RA_OF_ASC_NODE":15.8073,"ARG_OF_PERICENTER":114.0391,"MEAN_ANOMALY":246.0907,"EPHEMERIS_TYPE":0,"CLASSIFICATION_TYPE":"U","NORAD_CAT_ID":48069,"ELEMENT_SET_NO":999,"REV_AT_EPOCH":21706,"BSTAR":0.0010479837,"MEAN_MOTION_DOT":3.95e-6,"MEAN_MOTION_DDOT":0},{"OBJECT_NAME":"ONEWEB-0171","OBJECT_ID":"2021-025AE","EPOCH":"2025-09-10T07:03:35.104320","MEAN_MOTION":13.13470936,"ECCENTRICITY":0.00016335,"INCLINATION":87.9022,"RA_OF_ASC_NODE":15.8513,"ARG_OF_PERICENTER":100.117,"MEAN_ANOMALY":260.0144,"EPHEMERIS_TYPE":0,"CLASSIFICATION_TYPE":"U","NORAD_CAT_ID":48070,"ELEMENT_SET_NO":999,"REV_AT_EPOCH":21687,"BSTAR":-0.00067511739,"MEAN_MOTION_DOT":-2.34e-6,"MEAN_MOTION_DDOT":0},{"OBJECT_NAME":"ONEWEB-0172","OBJECT_ID":"2021-025AF","EPOCH":"2025-09-10T08:24:01.257984","MEAN_MOTION":13.13469687,"ECCENTRICITY":0.00016133,"INCLINATION":87.9033,"RA_OF_ASC_NODE":15.8082,"ARG_OF_PERICENTER":103.4913,"MEAN_ANOMALY":256.6396,"EPHEMERIS_TYPE":0,"CLASSIFICATION_TYPE":"U","NORAD_CAT_ID":48071,"ELEMENT_SET_NO":999,"REV_AT_EPOCH":21777,"BSTAR":0.00023338934,"MEAN_MOTION_DOT":9.8e-7,"MEAN_MOTION_DDOT":0},{"OBJECT_NAME":"ONEWEB-0174","OBJECT_ID":"2021-025AG","EPOCH":"2025-09-10T07:57:12.549600","MEAN_MOTION":13.13472419,"ECCENTRICITY":0.00018529,"INCLINATION":87.9028,"RA_OF_ASC_NODE":15.8241,"ARG_OF_PERICENTER":101.4638,"MEAN_ANOMALY":258.6699,"EPHEMERIS_TYPE":0,"CLASSIFICATION_TYPE":"U","NORAD_CAT_ID":48072,"ELEMENT_SET_NO":999,"REV_AT_EPOCH":21709,"BSTAR":0.0010284568,"MEAN_MOTION_DOT":3.88e-6,"MEAN_MOTION_DDOT":0},{"OBJECT_NAME":"ONEWEB-0175","OBJECT_ID":"2021-025AH","EPOCH":"2025-09-10T01:22:18.414048","MEAN_MOTION":13.13471121,"ECCENTRICITY":0.00013793,"INCLINATION":87.9029,"RA_OF_ASC_NODE":15.843,"ARG_OF_PERICENTER":98.4563,"MEAN_ANOMALY":261.6722,"EPHEMERIS_TYPE":0,"CLASSIFICATION_TYPE":"U","NORAD_CAT_ID":48073,"ELEMENT_SET_NO":999,"REV_AT_EPOCH":21671,"BSTAR":-0.00071658144,"MEAN_MOTION_DOT":-2.49e-6,"MEAN_MOTION_DDOT":0},{"OBJECT_NAME":"ONEWEB-0177","OBJECT_ID":"2021-025AJ","EPOCH":"2025-09-10T07:08:26.803680","MEAN_MOTION":13.13471093,"ECCENTRICITY":0.00018509,"INCLINATION":87.9034,"RA_OF_ASC_NODE":15.8122,"ARG_OF_PERICENTER":105.1579,"MEAN_ANOMALY":254.9755,"EPHEMERIS_TYPE":0,"CLASSIFICATION_TYPE":"U","NORAD_CAT_ID":48074,"ELEMENT_SET_NO":999,"REV_AT_EPOCH":21693,"BSTAR":-0.00060884071,"MEAN_MOTION_DOT":-2.1e-6,"MEAN_MOTION_DDOT":0},{"OBJECT_NAME":"ONEWEB-0178","OBJECT_ID":"2021-025AK","EPOCH":"2025-09-10T07:35:27.513024","MEAN_MOTION":13.13471153,"ECCENTRICITY":0.00015321,"INCLINATION":87.9032,"RA_OF_ASC_NODE":15.8547,"ARG_OF_PERICENTER":106.2789,"MEAN_ANOMALY":253.8509,"EPHEMERIS_TYPE":0,"CLASSIFICATION_TYPE":"U","NORAD_CAT_ID":48075,"ELEMENT_SET_NO":999,"REV_AT_EPOCH":21698,"BSTAR":0.00029762745,"MEAN_MOTION_DOT":1.21e-6,"MEAN_MOTION_DDOT":0},{"OBJECT_NAME":"ONEWEB-0108","OBJECT_ID":"2021-025AL","EPOCH":"2025-09-10T08:26:28.011840","MEAN_MOTION":13.13470005,"ECCENTRICITY":0.00018822,"INCLINATION":87.9029,"RA_OF_ASC_NODE":15.7938,"ARG_OF_PERICENTER":93.6335,"MEAN_ANOMALY":266.5009,"EPHEMERIS_TYPE":0,"CLASSIFICATION_TYPE":"U","NORAD_CAT_ID":48076,"ELEMENT_SET_NO":999,"REV_AT_EPOCH":21691,"BSTAR":0.00017152319,"MEAN_MOTION_DOT":7.5e-7,"MEAN_MOTION_DDOT":0},{"OBJECT_NAME":"ONEWEB-0169","OBJECT_ID":"2021-025AM","EPOCH":"2025-09-10T07:23:04.593120","MEAN_MOTION":13.13471217,"ECCENTRICITY":0.0001903,"INCLINATION":87.9031,"RA_OF_ASC_NODE":15.8256,"ARG_OF_PERICENTER":94.037,"MEAN_ANOMALY":266.0977,"EPHEMERIS_TYPE":0,"CLASSIFICATION_TYPE":"U","NORAD_CAT_ID":48077,"ELEMENT_SET_NO":999,"REV_AT_EPOCH":21556,"BSTAR":-0.00014855159,"MEAN_MOTION_DOT":-4.2e-7,"MEAN_MOTION_DDOT":0},{"OBJECT_NAME":"ONEWEB-0176","OBJECT_ID":"2021-031A","EPOCH":"2025-09-10T05:13:36.291360","MEAN_MOTION":13.14503969,"ECCENTRICITY":0.00017237,"INCLINATION":87.9084,"RA_OF_ASC_NODE":345.4401,"ARG_OF_PERICENTER":102.6784,"MEAN_ANOMALY":257.4538,"EPHEMERIS_TYPE":0,"CLASSIFICATION_TYPE":"U","NORAD_CAT_ID":48210,"ELEMENT_SET_NO":999,"REV_AT_EPOCH":21153,"BSTAR":-0.00038420152,"MEAN_MOTION_DOT":-1.3e-6,"MEAN_MOTION_DDOT":0},{"OBJECT_NAME":"ONEWEB-0184","OBJECT_ID":"2021-031B","EPOCH":"2025-09-10T06:24:23.311008","MEAN_MOTION":13.14502896,"ECCENTRICITY":9.913e-5,"INCLINATION":87.9094,"RA_OF_ASC_NODE":345.4018,"ARG_OF_PERICENTER":115.7718,"MEAN_ANOMALY":244.3514,"EPHEMERIS_TYPE":0,"CLASSIFICATION_TYPE":"U","NORAD_CAT_ID":48211,"ELEMENT_SET_NO":999,"REV_AT_EPOCH":21151,"BSTAR":0.00012143813,"MEAN_MOTION_DOT":5.8e-7,"MEAN_MOTION_DDOT":0},{"OBJECT_NAME":"ONEWEB-0179","OBJECT_ID":"2021-031C","EPOCH":"2025-09-10T05:42:08.099136","MEAN_MOTION":13.1450284,"ECCENTRICITY":0.00019047,"INCLINATION":87.9085,"RA_OF_ASC_NODE":345.4241,"ARG_OF_PERICENTER":102.4492,"MEAN_ANOMALY":257.6851,"EPHEMERIS_TYPE":0,"CLASSIFICATION_TYPE":"U","NORAD_CAT_ID":48212,"ELEMENT_SET_NO":999,"REV_AT_EPOCH":21155,"BSTAR":0.000608693,"MEAN_MOTION_DOT":2.38e-6,"MEAN_MOTION_DDOT":0},{"OBJECT_NAME":"ONEWEB-0180","OBJECT_ID":"2021-031D","EPOCH":"2025-09-10T06:28:57.528192","MEAN_MOTION":13.14504085,"ECCENTRICITY":0.00017917,"INCLINATION":87.9096,"RA_OF_ASC_NODE":345.4068,"ARG_OF_PERICENTER":110.0864,"MEAN_ANOMALY":250.0459,"EPHEMERIS_TYPE":0,"CLASSIFICATION_TYPE":"U","NORAD_CAT_ID":48213,"ELEMENT_SET_NO":999,"REV_AT_EPOCH":21144,"BSTAR":4.619886e-5,"MEAN_MOTION_DOT":3.0e-7,"MEAN_MOTION_DDOT":0},{"OBJECT_NAME":"ONEWEB-0218","OBJECT_ID":"2021-031E","EPOCH":"2025-09-09T18:13:39.526464","MEAN_MOTION":13.14503733,"ECCENTRICITY":0.00011487,"INCLINATION":87.9094,"RA_OF_ASC_NODE":345.509,"ARG_OF_PERICENTER":128.3903,"MEAN_ANOMALY":231.733,"EPHEMERIS_TYPE":0,"CLASSIFICATION_TYPE":"U","NORAD_CAT_ID":48214,"ELEMENT_SET_NO":999,"REV_AT_EPOCH":21153,"BSTAR":-0.00035177256,"MEAN_MOTION_DOT":-1.18e-6,"MEAN_MOTION_DDOT":0},{"OBJECT_NAME":"ONEWEB-0209","OBJECT_ID":"2021-031F","EPOCH":"2025-09-10T04:55:20.947584","MEAN_MOTION":13.14503988,"ECCENTRICITY":0.00019564,"INCLINATION":87.9088,"RA_OF_ASC_NODE":345.4637,"ARG_OF_PERICENTER":105.7172,"MEAN_ANOMALY":254.4174,"EPHEMERIS_TYPE":0,"CLASSIFICATION_TYPE":"U","NORAD_CAT_ID":48215,"ELEMENT_SET_NO":999,"REV_AT_EPOCH":21159,"BSTAR":-0.00031423613,"MEAN_MOTION_DOT":-1.04e-6,"MEAN_MOTION_DDOT":0}]
